{
    "links": {
        "self": "http://www.neowsapp.com/rest/v1/neo/3779438?api_key=iIulBulltgU6a56xZRHN4H3l9WmuAYTsLGpBGhQ2"
    },
    "id": "3779438",
    "neo_reference_id": "3779438",
    "name": "(2017 OY67)",
    "designation": "2017 OY67",
    "nasa_jpl_url": "http://ssd.jpl.nasa.gov/sbdb.cgi?sstr=3779438",
    "absolute_magnitude_h": 22.9,
    "estimated_diameter": {
        "kilometers": {
            "estimated_diameter_min": 0.0699125232,
            "estimated_diameter_max": 0.1563291544
        },
        "meters": {
            "estimated_diameter_min": 69.9125232246,
            "estimated_diameter_max": 156.3291544087
        },
        "miles": {
            "estimated_diameter_min": 0.0434416145,
            "estimated_diameter_max": 0.097138403
        },
        "feet": {
            "estimated_diameter_min": 229.3718026961,
            "estimated_diameter_max": 512.8909429502
        }
    },
    "is_potentially_hazardous_asteroid": false,
    "close_approach_data": [
        {
            "close_approach_date": "2017-07-30",
            "close_approach_date_full": "2017-Jul-30 06:28",
            "epoch_date_close_approach": 1501396080000,
            "relative_velocity": {
                "kilometers_per_second": "6.6563388417",
                "kilometers_per_hour": "23962.8198302293",
                "miles_per_hour": "14889.5643550667"
            },
            "miss_distance": {
                "astronomical": "0.2550325758",
                "lunar": "99.2076719862",
                "kilometers": "38152330.120293546",
                "miles": "23706758.6397450948"
            },
            "orbiting_body": "Earth"
        }
    ],
    "orbital_data": {
        "orbit_id": "6",
        "orbit_determination_date": "2017-10-31 06:19:10",
        "first_observation_date": "2017-07-26",
        "last_observation_date": "2017-08-30",
        "data_arc_in_days": 35,
        "observations_used": 29,
        "orbit_uncertainty": "6",
        "minimum_orbit_intersection": ".246099",
        "jupiter_tisserand_invariant": "3.387",
        "epoch_osculation": "2459000.5",
        "eccentricity": ".4622895573464276",
        "semi_major_axis": "2.344549642082716",
        "inclination": "11.28162584055588",
        "ascending_node_longitude": "308.4059603967888",
        "orbital_period": "1311.256263967175",
        "perihelion_distance": "1.260688825867572",
        "perihelion_argument": ".638346503075064",
        "aphelion_distance": "3.42841045829786",
        "perihelion_time": "2459282.294834155842",
        "mean_anomaly": "282.6343903294843",
        "mean_motion": ".2745458762658861",
        "equinox": "J2000",
        "orbit_class": {
            "orbit_class_type": "AMO",
            "orbit_class_description": "Near-Earth asteroid orbits similar to that of 1221 Amor",
            "orbit_class_range": "1.017 AU < q (perihelion) < 1.3 AU"
        }
    },
    "is_sentry_object": false
}